OBJECT_NAME,OBJECT_ID,EPOCH,MEAN_MOTION,ECCENTRICITY,INCLINATION,RA_OF_ASC_NODE,ARG_OF_PERICENTER,MEAN_ANOMALY,EPHEMERIS_TYPE,CLASSIFICATION_TYPE,NORAD_CAT_ID,ELEMENT_SET_NO,REV_AT_EPOCH,BSTAR,MEAN_MOTION_DOT,MEAN_MOTION_DDOT
SL-16 R/B,1994-077B,2026-07-10T17:20:14.485632,14.15575359,.0004058,70.9827,93.6498,306.7815,53.2935,0,U,23405,999,63364,-.12097E-3,-.285E-5,0
ARIANE 40+ R/B,1995-021B,2026-07-10T04:30:54.580608,14.39845904,.00077513,98.4402,260.9298,129.3535,254.5926,0,U,23561,999,63687,.57136772E-4,.136E-5,0
SL-16 R/B,1995-058B,2026-07-10T05:46:30.217728,14.15508118,.00146081,71.0215,282.9575,289.2839,70.6704,0,U,23705,999,58519,-.40522722E-4,-.127E-5,0
SL-16 R/B,1996-051B,2026-07-10T04:32:36.338208,14.12454537,.00174006,70.7650,275.9704,304.6233,55.3245,0,U,24298,999,53894,.97553211E-4,.131E-5,0
ORBVIEW 2 (SEASTAR),1997-037A,2026-07-09T17:48:13.832064,14.35565113,.00032268,98.8708,358.3882,71.7834,288.3701,0,U,24883,999,52598,.67593343E-4,.148E-5,0
SL-16 R/B,1998-043G,2026-07-10T07:20:39.141312,14.26072264,.00102996,98.8377,145.6657,25.0584,335.1093,0,U,25400,999,45646,.2344845E-4,.11E-6,0
SL-16 R/B,1998-045B,2026-07-10T06:17:22.504992,14.16207072,.00084303,71.0120,283.8029,213.5475,146.5115,0,U,25407,999,44445,-.92461759E-4,-.231E-5,0
ISS (ZARYA),1998-067A,2026-07-10T16:04:21.711072,15.48970863,.0006684,51.6301,183.8741,279.9238,80.0995,0,U,25544,999,57539,.10345E-3,.5249E-4,0
CZ-4B R/B,1999-025C,2026-07-10T01:25:41.612160,14.18287138,.00369286,98.6473,232.3211,354.6614,33.4161,0,U,25732,999,40551,.23674816E-4,.6E-7,0
OKEAN-O,1999-039A,2026-07-10T14:20:14.694720,14.80494216,.000099,97.9304,250.1251,78.8596,281.2727,0,U,25860,999,45257,.46591E-4,.305E-5,0
SL-16 R/B,1999-039B,2026-07-10T02:59:40.812288,14.81867733,.00139386,97.9825,249.9211,215.5721,144.4564,0,U,25861,999,45499,.42349391E-4,.281E-5,0
DELTA 2 R/B,1999-041E,2026-07-10T19:35:36.087360,14.12072183,.0501284,51.7614,169.3935,351.8278,7.4707,0,U,25876,999,38042,.23287E-3,.121E-4,0
HELIOS 1B,1999-064A,2026-07-10T15:31:09.848064,14.88068191,.000215,98.1592,97.4636,59.9710,300.1719,0,U,25977,999,70354,.92291E-4,.79E-5,0
TERRA,1999-068A,2026-07-10T20:30:22.148064,14.61121475,.0003234,97.9443,240.4608,131.2978,317.0558,0,U,25994,999,41306,.47181E-4,.188E-5,0
SL-16 R/B,2000-006B,2026-07-10T00:38:20.236704,14.15839536,.00169787,71.0003,200.6011,347.2271,12.8419,0,U,26070,999,36587,-.99655472E-4,-.244E-5,0
TITAN 4B R/B,2000-047B,2026-07-10T20:03:42.515136,15.10319841,.004594,67.9872,54.0012,263.0567,96.5355,0,U,26474,999,41150,.91802E-4,.1403E-4,0
ENVISAT,2002-009A,2026-07-10T08:23:40.076160,14.39070079,.00013529,98.3846,142.1531,84.3059,63.5741,0,U,27386,999,27681,.2340758E-4,.29E-6,0
IDEFIX & ARIANE 42P R/B,2002-021B,2026-07-10T06:31:47.755200,14.31092447,.00115861,98.5942,128.5054,180.8092,179.3074,0,U,27422,999,26155,.56475991E-4,.105E-5,0
AQUA,2002-022A,2026-07-10T20:41:50.280864,14.62193112,.0000813,98.4292,161.6206,105.6447,283.9748,0,U,27424,999,28673,.91663E-4,.412E-5,0
CZ-4B R/B,2002-024C,2026-07-10T14:21:58.537152,14.14567773,.0050714,98.8688,244.2653,34.9386,110.3090,0,U,27432,999,24661,.20325E-4,-.5E-7,0
MIDORI II (ADEOS-II),2002-056A,2026-07-10T07:24:13.681152,14.29361606,.00016802,98.7892,150.7665,46.7248,313.4074,0,U,27597,999,22781,.71278219E-4,.136E-5,0
H-2A R/B,2002-056E,2026-07-10T15:44:00.000384,14.33832351,.0070627,98.3326,147.4762,154.3341,200.0518,0,U,27601,999,23172,.58694E-4,.127E-5,0
CZ-4B R/B,2003-049C,2026-07-09T23:48:28.246176,14.55113935,.00473367,98.6906,190.7473,217.3645,142.4256,0,U,28059,999,20438,.48379427E-4,.16E-5,0
CZ-2C R/B,2004-012C,2026-07-08T19:16:42.700800,15.83823781,.00111271,97.7050,268.0571,210.2414,149.8213,0,U,28222,999,22331,.44522244E-3,.99446E-3,0
SL-16 R/B,2004-021B,2026-07-10T08:30:56.236320,14.14615417,.00064353,71.0024,335.0662,229.1860,130.8705,0,U,28353,999,14018,.11210395E-3,.168E-5,0
CZ-4B R/B,2004-035C,2026-07-10T15:57:43.082208,15.30952275,.002899,97.3363,224.4771,249.5779,110.2349,0,U,28415,999,19871,.16224E-3,.4834E-4,0
CZ-2C R/B,2004-046B,2026-07-10T04:33:28.479744,14.27032158,.0139855,98.1925,98.5309,152.1241,208.7525,0,U,28480,999,12597,.33450247E-4,.5E-6,0
ARIANE 5 R/B,2004-049H,2026-07-09T23:09:40.148064,14.85475243,.0082885,98.2737,4.1006,315.4598,43.9973,0,U,28499,999,16394,.4127965E-4,.312E-5,0
CZ-2D R/B,2005-024B,2026-07-10T00:35:32.486784,15.72259089,.00014369,97.3474,211.6350,209.4582,150.6601,0,U,28738,999,15892,.40523081E-3,.53547E-3,0
ALOS (DAICHI),2006-002A,2026-07-09T19:46:44.296320,14.70095524,.00007798,98.1335,146.3228,84.1885,275.9410,0,U,28931,999,9142,.11791798E-3,.659E-5,0
